OBJECT_NAME,OBJECT_ID,EPOCH,MEAN_MOTION,ECCENTRICITY,INCLINATION,RA_OF_ASC_NODE,ARG_OF_PERICENTER,MEAN_ANOMALY,EPHEMERIS_TYPE,CLASSIFICATION_TYPE,NORAD_CAT_ID,ELEMENT_SET_NO,REV_AT_EPOCH,BSTAR,MEAN_MOTION_DOT,MEAN_MOTION_DDOT
COSMOS 2534 (758),2019-030A,2026-07-16T15:35:19.703040,2.13102191,.0013502,64.3705,191.6243,275.0108,146.6615,0,U,44299,999,5555,0,.52E-6,0
BEIDOU-3 IGSO-2 (C39),2019-035A,2026-07-17T06:59:29.610816,1.00256869,.00393001,55.2507,158.5979,216.4251,143.3539,0,U,44337,999,2597,0,-.132E-5,0
GPS BIII-2  (PRN 18),2019-056A,2026-07-17T13:03:37.816416,2.00570120,.00635345,55.6206,329.9359,198.1981,149.1155,0,U,44506,999,5067,0,-.1E-5,0
BEIDOU-3 M24 (C46),2019-061A,2026-07-16T05:42:36.588672,1.86229127,.00086464,54.3974,181.7481,359.7082,0.2616,0,U,44542,999,4633,0,.4E-6,0
BEIDOU-3 M23 (C45),2019-061B,2026-07-16T08:45:12.138912,1.86227496,.0005956,54.3958,181.7121,340.9242,15.4707,0,U,44543,999,4633,0,.41E-6,0
EUTELSAT 5 WEST B (EGNOS/PRN 121),2019-067A,2026-07-17T08:07:01.847712,1.00272406,.00031048,0.0808,318.1822,157.3637,296.3630,0,U,44624,999,2473,0,-.52E-6,0
BEIDOU-3 M22 (C44),2019-078A,2026-07-13T09:26:32.496288,1.86227300,.00057504,53.9106,298.9058,50.3045,309.7753,0,U,44793,999,4513,0,-.62E-6,0
BEIDOU-3 M21 (C43),2019-078B,2026-07-16T18:07:17.419008,1.86227738,.00035106,53.8801,298.7476,49.6738,310.3961,0,U,44794,999,4520,0,-.75E-6,0
COSMOS 2544 (759),2019-088A,2026-07-16T02:57:54.211968,2.13102828,.00120947,65.5811,72.7655,253.4960,106.4479,0,U,44850,999,5133,0,-.13E-6,0
BEIDOU-3 M19 (C41),2019-090A,2026-07-15T03:29:10.845024,1.86231024,.0016849,56.5835,61.8670,297.6358,260.7026,0,U,44864,999,4475,0,-.41E-6,0
BEIDOU-3 M20 (C42),2019-090B,2026-07-14T11:37:19.767648,1.86231156,.0014404,56.5842,61.9230,312.7642,251.9859,0,U,44865,999,4472,0,-.39E-6,0
BEIDOU-3 G2 (C60),2020-017A,2026-07-17T15:50:06.999072,1.00272721,.0001914,2.9248,47.8431,58.6715,146.5033,0,U,45344,999,2356,0,-.15E-5,0
COSMOS 2545 (760),2020-018A,2026-07-16T18:54:19.644768,2.13102364,.00096209,64.3358,311.3788,229.7461,130.1896,0,U,45358,999,4929,0,-.65E-6,0
BEIDOU-3 G3 (C61),2020-040A,2026-07-17T14:22:57.230400,1.00275300,.00022103,2.5204,67.4888,308.4037,245.7579,0,U,45807,999,2237,0,-.364E-5,0
GPS BIII-3  (PRN 23),2020-041A,2026-07-17T09:40:05.795040,2.00557849,.00652974,56.6898,27.7716,204.6840,337.6305,0,U,45854,999,4464,0,-.83E-6,0
GALAXY 30 (WAAS/PRN 135),2020-056C,2026-07-17T14:23:25.503072,1.00270960,.00022542,0.0225,59.8270,58.8872,267.5676,0,U,46114,999,2159,0,0,0
COSMOS 2547 (705K),2020-075A,2026-07-15T13:40:19.372224,2.13099910,.00094588,64.6014,191.5282,239.8249,120.0839,0,U,46805,999,4451,0,.54E-6,0
GPS BIII-4  (PRN 14),2020-078A,2026-07-16T16:30:38.695104,2.00564972,.00745869,53.9770,209.5818,207.8620,155.6551,0,U,46826,999,4210,0,.4E-6,0
GPS BIII-5  (PRN 11),2021-054A,2026-07-16T23:42:53.942976,2.00566994,.00264954,55.1585,331.2614,228.5534,178.0672,0,U,48859,999,3735,0,-.1E-5,0
QZS-1R (QZSS/PRN 196),2021-096A,2026-07-17T13:39:38.744352,1.00244494,.07553529,37.5223,79.1315,272.2799,280.3110,0,U,49336,999,1731,0,-.311E-5,0
GSAT0223 (GALILEO 27),2021-116A,2026-07-16T21:55:53.520960,1.70476073,.00024409,57.1499,340.8723,195.3183,168.4273,0,U,49809,999,2869,0,-.103E-5,0
GSAT0224 (GALILEO 28),2021-116B,2026-07-16T17:27:13.396896,1.70476111,.00018421,57.1497,340.8759,181.9610,179.9110,0,U,49810,999,2871,0,-.103E-5,0
COSMOS 2557 (706K),2022-075A,2026-07-15T06:20:56.681952,2.13102178,.0010843,64.2806,313.4964,271.2690,88.6188,0,U,52984,999,3131,0,-.64E-6,0
COSMOS 2559 (707K),2022-130A,2026-07-16T23:04:15.648672,2.13101684,.00131143,64.2518,313.5188,181.1905,178.8238,0,U,54031,999,2932,0,-.68E-6,0
COSMOS 2564 (761),2022-161A,2026-07-16T19:18:19.473984,2.13101994,.00122164,64.7439,191.7285,224.8828,135.0172,0,U,54377,999,2826,0,.53E-6,0
GPS BIII-6  (PRN 28),2023-009A,2026-07-17T02:59:03.820992,2.00569455,.00062381,55.1244,147.3421,322.1969,221.4770,0,U,55268,999,2584,0,.24E-6,0
BEIDOU-3 G4 (C62),2023-066A,2026-07-17T15:38:59.756928,1.00271839,.0004967,0.4585,339.6546,185.6242,145.0043,0,U,56564,999,1169,0,-.29E-5,0
NVS-01 (IRNSS-1J),2023-076A,2026-07-17T13:39:38.744352,1.00277466,.00030951,2.0959,242.9593,20.2290,6.5253,0,U,56759,999,1142,0,-.345E-5,0
COSMOS 2569 (703K),2023-114A,2026-07-15T21:04:36.390144,2.13103741,.00096551,65.3185,71.6532,295.9092,64.0686,0,U,57517,999,2287,0,-.13E-6,0
BEIDOU-3 M28 (C50),2023-207A,2026-07-17T08:51:18.843840,1.86229711,.0002355,55.7796,61.2849,6.6931,353.3796,0,U,58654,999,1740,0,-.58E-6,0
BEIDOU-3 M26 (C48),2023-207B,2026-07-13T22:40:23.820960,1.86229657,.0002016,55.7789,61.3870,324.6613,35.3983,0,U,58655,999,1732,0,-.41E-6,0
