COSMOS 2534 [GLONASS-M] 
1 44299U 19030A   26197.64953360  .00000052  00000+0  00000+0 0  9997
2 44299  64.3705 191.6243 0013502 275.0108 146.6615  2.13102191 55554
BEIDOU-3 IGSO-2         
1 44337U 19035A   26198.29131494 -.00000132  00000+0  00000+0 0  9993
2 44337  55.2507 158.5979 0039300 216.4251 143.3539  1.00256869 25975
NAVSTAR 78 (USA 293)    
1 44506U 19056A   26198.54418769 -.00000100  00000+0  00000+0 0  9990
2 44506  55.6206 329.9359 0063534 198.1981 149.1155  2.00570120 50674
BEIDOU-3 M24            
1 44542U 19061A   26197.23792348  .00000040  00000+0  00000+0 0  9991
2 44542  54.3974 181.7481 0008646 359.7082   0.2616  1.86229127 46330
BEIDOU-3 M23            
1 44543U 19061B   26197.36472383  .00000041  00000+0  00000+0 0  9991
2 44543  54.3958 181.7121 0005956 340.9242  15.4707  1.86227496 46331
EUTELSAT 5 WEST B       
1 44624U 19067A   26198.33821583 -.00000052  00000+0  00000+0 0  9998
2 44624   0.0808 318.1822 0003104 157.3637 296.3630  1.00272406 24730
BEIDOU-3 M22            
1 44793U 19078A   26194.39343167 -.00000062  00000+0  00000+0 0  9997
2 44793  53.9106 298.9058 0005750  50.3045 309.7753  1.86227300 45134
BEIDOU-3 M21            
1 44794U 19078B   26197.75506272 -.00000075  00000+0  00000+0 0  9993
2 44794  53.8801 298.7476 0003510  49.6738 310.3961  1.86227738 45202
COSMOS 2544 [GLONASS-M] 
1 44850U 19088A   26197.12354412 -.00000013  00000+0  00000+0 0  9997
2 44850  65.5811  72.7655 0012094 253.4960 106.4479  2.13102828 51336
BEIDOU-3 M19            
1 44864U 19090A   26196.14526441 -.00000041  00000+0  00000+0 0  9990
2 44864  56.5835  61.8670 0016849 297.6358 260.7026  1.86231024 44756
BEIDOU-3 M20            
1 44865U 19090B   26195.48425657 -.00000039  00000+0  00000+0 0  9991
2 44865  56.5842  61.9230 0014404 312.7642 251.9859  1.86231156 44727
BEIDOU-3 G2             
1 45344U 20017A   26198.65980323 -.00000150  00000+0  00000+0 0  9997
2 45344   2.9248  47.8431 0001914  58.6715 146.5033  1.00272721 23561
COSMOS 2545 [GLONASS-M] 
1 45358U 20018A   26197.78772737 -.00000065  00000+0  00000+0 0  9999
2 45358  64.3358 311.3788 0009620 229.7461 130.1896  2.13102364 49299
BEIDOU-3 G3             
1 45807U 20040A   26198.59927350 -.00000364  00000+0  00000+0 0  9998
2 45807   2.5204  67.4888 0002210 308.4037 245.7579  1.00275300 22371
NAVSTAR 79 (USA 304)    
1 45854U 20041A   26198.40284485 -.00000083  00000+0  00000+0 0  9994
2 45854  56.6898  27.7716 0065297 204.6840 337.6305  2.00557849 44648
GALAXY 30 (G-30)        
1 46114U 20056C   26198.59960073  .00000000  00000+0  00000+0 0  9992
2 46114   0.0225  59.8270 0002254  58.8872 267.5676  1.00270960 21590
COSMOS 2547 [GLONASS-K] 
1 46805U 20075A   26196.56966866  .00000054  00000+0  00000+0 0  9990
2 46805  64.6014 191.5282 0009458 239.8249 120.0839  2.13099910 44518
NAVSTAR 80 (USA 309)    
1 46826U 20078A   26197.68794786  .00000040  00000+0  00000+0 0  9995
2 46826  53.9770 209.5818 0074586 207.8620 155.6551  2.00564972 42107
NAVSTAR 81 (USA 319)    
1 48859U 21054A   26197.98812434 -.00000100  00000+0  00000+0 0  9990
2 48859  55.1585 331.2614 0026495 228.5534 178.0672  2.00566994 37350
QZS-1R (MICHIBIKI-1R)   
1 49336U 21096A   26198.56919843 -.00000311  00000+0  00000+0 0  9998
2 49336  37.5223  79.1315 0755352 272.2799 280.3110  1.00244494 17315
GSAT0223 (GALILEO 27)   
1 49809U 21116A   26197.91381390 -.00000103  00000+0  00000+0 0  9993
2 49809  57.1499 340.8723 0002440 195.3183 168.4273  1.70476073 28695
GSAT0224 (GALILEO 28)   
1 49810U 21116B   26197.72723839 -.00000103  00000+0  00000+0 0  9992
2 49810  57.1497 340.8759 0001842 181.9610 179.9110  1.70476111 28718
COSMOS 2557 [GLONASS-K] 
1 52984U 22075A   26196.26454493 -.00000064  00000+0  00000+0 0  9994
2 52984  64.2806 313.4964 0010843 271.2690  88.6188  2.13102178 31311
COSMOS 2559 [GLONASS-K] 
1 54031U 22130A   26197.96129223 -.00000068  00000+0  00000+0 0  9993
2 54031  64.2518 313.5188 0013114 181.1905 178.8238  2.13101684 29324
COSMOS 2564 [GLONASS-M] 
1 54377U 22161A   26197.80439206  .00000053  00000+0  00000+0 0  9991
2 54377  64.7439 191.7285 0012216 224.8828 135.0172  2.13101994 28267
NAVSTAR 82 (USA 343)    
1 55268U 23009A   26198.12434978  .00000024  00000+0  00000+0 0  9998
2 55268  55.1244 147.3421 0006238 322.1969 221.4770  2.00569455 25840
BEIDOU-3 G4             
1 56564U 23066A   26198.65208052 -.00000290  00000+0  00000+0 0  9997
2 56564   0.4585 339.6546 0004967 185.6242 145.0043  1.00271839 11695
NVS-01 (IRNSS-1J)       
1 56759U 23076A   26198.56919843 -.00000345  00000+0  00000+0 0  9992
2 56759   2.0959 242.9593 0003095  20.2290   6.5253  1.00277466 11427
COSMOS 2569 [GLONASS-K2]
1 57517U 23114A   26196.87819896 -.00000013  00000+0  00000+0 0  9999
2 57517  65.3185  71.6532 0009655 295.9092  64.0686  2.13103741 22871
BEIDOU-3 M28            
1 58654U 23207A   26198.36896810 -.00000058  00000+0  00000+0 0  9991
2 58654  55.7796  61.2849 0002355   6.6931 353.3796  1.86229711 17404
BEIDOU-3 M26            
1 58655U 23207B   26194.94472015 -.00000041  00000+0  00000+0 0  9991
2 58655  55.7789  61.3870 0002016 324.6613  35.3983  1.86229657 17321
